start=new Date('2022-06-05T00:00:00.000Z').valueOf();
sats=[{"NORAD_CAT_ID":"46126","TIME_SYSTEM":"UTC","MEAN_MOTION_DOT":"0.00000971","EPHEMERIS_TYPE":"0","PERIOD":"95.592","MEAN_MOTION":"15.06396372","MEAN_MOTION_DDOT":"0.0000000000000","OBJECT_NAME":"STARLINK-1619","ELEMENT_SET_NO":"999","REV_AT_EPOCH":"9900","RA_OF_ASC_NODE":"3.8933","OBJECT_TYPE":"PAYLOAD","TLE_LINE2":"2 46126  53.0566   3.8933 0001436  86.7433 273.3720 15.06396372 99001","FILE":"3481313","COUNTRY_CODE":"US","RCS_SIZE":"LARGE","SITE":"AFETR","TLE_LINE1":"1 46126U 20057K   22155.88073715  .00000971  00000-0  84047-4 0  9991","EPOCH":"2022-06-04T21:08:15.689760","DECAY_DATE":null,"CENTER_NAME":"EARTH","SEMIMAJOR_AXIS":"6925.360","PERIAPSIS":"546.230","BSTAR":"0.00008404700000","LAUNCH_DATE":"2020-08-18","INCLINATION":"53.0566","ARG_OF_PERICENTER":"86.7433","ECCENTRICITY":"0.00014360","MEAN_ELEMENT_THEORY":"SGP4","APOAPSIS":"548.219","CLASSIFICATION_TYPE":"U","MEAN_ANOMALY":"273.3720","OBJECT_ID":"2020-057K","GP_ID":"205383158","REF_FRAME":"TEME"},{"FILE":"3481313","COUNTRY_CODE":"US","TLE_LINE2":"2 46127  53.0565 344.2229 0001795  61.7829 298.3341 15.06396363 99265","OBJECT_TYPE":"PAYLOAD","RA_OF_ASC_NODE":"344.2229","SITE":"AFETR","RCS_SIZE":"LARGE","EPHEMERIS_TYPE":"0","MEAN_MOTION_DOT":"-0.00001779","NORAD_CAT_ID":"46127","TIME_SYSTEM":"UTC","REV_AT_EPOCH":"9926","ELEMENT_SET_NO":"999","MEAN_MOTION_DDOT":"0.0000000000000","PERIOD":"95.592","MEAN_MOTION":"15.06396363","OBJECT_NAME":"STARLINK-1621","OBJECT_ID":"2020-057L","APOAPSIS":"548.468","MEAN_ANOMALY":"298.3341","CLASSIFICATION_TYPE":"U","GP_ID":"205382908","REF_FRAME":"TEME","DECAY_DATE":null,"EPOCH":"2022-06-04T19:19:27.106176","SEMIMAJOR_AXIS":"6925.360","CENTER_NAME":"EARTH","TLE_LINE1":"1 46127U 20057L   22155.80517484 -.00001779  00000-0 -10058-3 0  9999","ECCENTRICITY":"0.00017950","INCLINATION":"53.0565","ARG_OF_PERICENTER":"61.7829","MEAN_ELEMENT_THEORY":"SGP4","PERIAPSIS":"545.982","LAUNCH_DATE":"2020-08-18","BSTAR":"-0.00010058000000"},{"PERIOD":"95.592","MEAN_MOTION_DDOT":"0.0000000000000","OBJECT_NAME":"STARLINK-1622","MEAN_MOTION":"15.06400248","ELEMENT_SET_NO":"999","REV_AT_EPOCH":"9955","NORAD_CAT_ID":"46128","TIME_SYSTEM":"UTC","MEAN_MOTION_DOT":"0.00002080","EPHEMERIS_TYPE":"0","RCS_SIZE":"LARGE","SITE":"AFETR","RA_OF_ASC_NODE":"324.1005","OBJECT_TYPE":"PAYLOAD","TLE_LINE2":"2 46128  53.0539 324.1005 0001424  77.8867 282.2281 15.06400248 99550","COUNTRY_CODE":"US","FILE":"3481313","PERIAPSIS":"546.227","BSTAR":"0.00015850000000","LAUNCH_DATE":"2020-08-18","ARG_OF_PERICENTER":"77.8867","INCLINATION":"53.0539","ECCENTRICITY":"0.00014240","MEAN_ELEMENT_THEORY":"SGP4","TLE_LINE1":"1 46128U 20057M   22155.83281794  .00002080  00000-0  15850-3 0  9994","EPOCH":"2022-06-04T19:59:15.470016","DECAY_DATE":null,"CENTER_NAME":"EARTH","SEMIMAJOR_AXIS":"6925.348","GP_ID":"205384157","REF_FRAME":"TEME","APOAPSIS":"548.199","CLASSIFICATION_TYPE":"U","MEAN_ANOMALY":"282.2281","OBJECT_ID":"2020-057M"},{"REV_AT_EPOCH":"9956","ELEMENT_SET_NO":"999","MEAN_MOTION":"15.06389924","PERIOD":"95.593","MEAN_MOTION_DDOT":"0.0000000000000","OBJECT_NAME":"STARLINK-1623","EPHEMERIS_TYPE":"0","MEAN_MOTION_DOT":"0.00000990","TIME_SYSTEM":"UTC","NORAD_CAT_ID":"46129","SITE":"AFETR","RCS_SIZE":"LARGE","FILE":"3481313","COUNTRY_CODE":"US","TLE_LINE2":"2 46129  53.0548 323.9343 0001577  78.5189 281.5977 15.06389924 99569","OBJECT_TYPE":"PAYLOAD","RA_OF_ASC_NODE":"323.9343","MEAN_ELEMENT_THEORY":"SGP4","ECCENTRICITY":"0.00015770","ARG_OF_PERICENTER":"78.5189","INCLINATION":"53.0548","LAUNCH_DATE":"2020-08-18","BSTAR":"0.00008534800000","PERIAPSIS":"546.152","SEMIMAJOR_AXIS":"6925.379","CENTER_NAME":"EARTH","DECAY_DATE":null,"EPOCH":"2022-06-04T20:57:39.181824","TLE_LINE1":"1 46129U 20057N   22155.87337016  .00000990  00000-0  85348-4 0  9996","REF_FRAME":"TEME","GP_ID":"205383904","OBJECT_ID":"2020-057N","MEAN_ANOMALY":"281.5977","CLASSIFICATION_TYPE":"U","APOAPSIS":"548.337"},{"TLE_LINE1":"1 46130U 20057P   22155.84019353 -.00001730  00000-0 -97293-4 0  9993","EPOCH":"2022-06-04T20:09:52.720992","DECAY_DATE":null,"CENTER_NAME":"EARTH","SEMIMAJOR_AXIS":"6925.371","PERIAPSIS":"546.163","BSTAR":"-0.00009729300000","LAUNCH_DATE":"2020-08-18","INCLINATION":"53.0553","ARG_OF_PERICENTER":"58.4885","ECCENTRICITY":"0.00015490","MEAN_ELEMENT_THEORY":"SGP4","APOAPSIS":"548.308","CLASSIFICATION_TYPE":"U","MEAN_ANOMALY":"301.6256","OBJECT_ID":"2020-057P","GP_ID":"205382658","REF_FRAME":"TEME","NORAD_CAT_ID":"46130","TIME_SYSTEM":"UTC","MEAN_MOTION_DOT":"-0.00001730","EPHEMERIS_TYPE":"0","MEAN_MOTION":"15.06392802","PERIOD":"95.593","MEAN_MOTION_DDOT":"0.0000000000000","OBJECT_NAME":"STARLINK-1624","ELEMENT_SET_NO":"999","REV_AT_EPOCH":"10080","RA_OF_ASC_NODE":"324.0635","TLE_LINE2":"2 46130  53.0553 324.0635 0001549  58.4885 301.6256 15.06392802100805","OBJECT_TYPE":"PAYLOAD","FILE":"3481313","COUNTRY_CODE":"US","RCS_SIZE":"LARGE","SITE":"AFETR"},{"REF_FRAME":"TEME","GP_ID":"205383409","OBJECT_ID":"2020-057Q","MEAN_ANOMALY":"285.9187","CLASSIFICATION_TYPE":"U","APOAPSIS":"548.187","MEAN_ELEMENT_THEORY":"SGP4","ECCENTRICITY":"0.00014050","INCLINATION":"53.0536","ARG_OF_PERICENTER":"74.1957","LAUNCH_DATE":"2020-08-18","BSTAR":"0.00006918800000","PERIAPSIS":"546.241","SEMIMAJOR_AXIS":"6925.349","CENTER_NAME":"EARTH","DECAY_DATE":null,"EPOCH":"2022-06-04T18:52:54.231456","TLE_LINE1":"1 46131U 20057Q   22155.78673879  .00000749  00000-0  69188-4 0  9995","SITE":"AFETR","RCS_SIZE":"LARGE","FILE":"3481313","COUNTRY_CODE":"US","TLE_LINE2":"2 46131  53.0536 344.3106 0001405  74.1957 285.9187 15.06400005100522","OBJECT_TYPE":"PAYLOAD","RA_OF_ASC_NODE":"344.3106","REV_AT_EPOCH":"10052","ELEMENT_SET_NO":"999","MEAN_MOTION_DDOT":"0.0000000000000","PERIOD":"95.592","OBJECT_NAME":"STARLINK-1625","MEAN_MOTION":"15.06400005","EPHEMERIS_TYPE":"0","MEAN_MOTION_DOT":"0.00000749","TIME_SYSTEM":"UTC","NORAD_CAT_ID":"46131"},{"RA_OF_ASC_NODE":"4.1460","TLE_LINE2":"2 46132  53.0558   4.1460 0001850  67.3189 292.7996 15.06400197100252","OBJECT_TYPE":"PAYLOAD","FILE":"3481313","COUNTRY_CODE":"US","RCS_SIZE":"LARGE","SITE":"AFETR","NORAD_CAT_ID":"46132","TIME_SYSTEM":"UTC","MEAN_MOTION_DOT":"0.00000065","EPHEMERIS_TYPE":"0","PERIOD":"95.592","MEAN_MOTION":"15.06400197","MEAN_MOTION_DDOT":"0.0000000000000","OBJECT_NAME":"STARLINK-1630","ELEMENT_SET_NO":"999","REV_AT_EPOCH":"10025","APOAPSIS":"548.494","CLASSIFICATION_TYPE":"U","MEAN_ANOMALY":"292.7996","OBJECT_ID":"2020-057R","GP_ID":"205383657","REF_FRAME":"TEME","TLE_LINE1":"1 46132U 20057R   22155.82544300  .00000065  00000-0  23250-4 0  9998","EPOCH":"2022-06-04T19:48:38.275200","DECAY_DATE":null,"CENTER_NAME":"EARTH","SEMIMAJOR_AXIS":"6925.348","PERIAPSIS":"545.932","BSTAR":"0.00002325000000","LAUNCH_DATE":"2020-08-18","ARG_OF_PERICENTER":"67.3189","INCLINATION":"53.0558","ECCENTRICITY":"0.00018500","MEAN_ELEMENT_THEORY":"SGP4"},{"MEAN_ANOMALY":"259.4172","CLASSIFICATION_TYPE":"U","APOAPSIS":"548.191","OBJECT_ID":"2020-057S","REF_FRAME":"TEME","GP_ID":"205384405","TLE_LINE1":"1 46133U 20057S   22155.75911394  .00000193  00000-0  31852-4 0  9991","SEMIMAJOR_AXIS":"6925.382","CENTER_NAME":"EARTH","DECAY_DATE":null,"EPOCH":"2022-06-04T18:13:07.444416","LAUNCH_DATE":"2020-08-18","BSTAR":"0.00003185200000","PERIAPSIS":"546.302","MEAN_ELEMENT_THEORY":"SGP4","ECCENTRICITY":"0.00013640","INCLINATION":"53.0556","ARG_OF_PERICENTER":"100.6971","RA_OF_ASC_NODE":"324.4265","FILE":"3481313","COUNTRY_CODE":"US","TLE_LINE2":"2 46133  53.0556 324.4265 0001364 100.6971 259.4172 15.06389149100790","OBJECT_TYPE":"PAYLOAD","RCS_SIZE":"LARGE","SITE":"AFETR","TIME_SYSTEM":"UTC","NORAD_CAT_ID":"46133","EPHEMERIS_TYPE":"0","MEAN_MOTION_DOT":"0.00000193","MEAN_MOTION_DDOT":"0.0000000000000","PERIOD":"95.593","OBJECT_NAME":"STARLINK-1637","MEAN_MOTION":"15.06389149","REV_AT_EPOCH":"10079","ELEMENT_SET_NO":"999"},{"RA_OF_ASC_NODE":"324.4093","OBJECT_TYPE":"PAYLOAD","TLE_LINE2":"2 46134  53.0576 324.4093 0001490  83.5228 276.5930 15.06388708 99548","FILE":"3481313","COUNTRY_CODE":"US","RCS_SIZE":"LARGE","SITE":"AFETR","NORAD_CAT_ID":"46134","TIME_SYSTEM":"UTC","MEAN_MOTION_DOT":"0.00000260","EPHEMERIS_TYPE":"0","MEAN_MOTION_DDOT":"0.0000000000000","PERIOD":"95.593","OBJECT_NAME":"STARLINK-1638","MEAN_MOTION":"15.06388708","ELEMENT_SET_NO":"999","REV_AT_EPOCH":"9954","APOAPSIS":"548.280","CLASSIFICATION_TYPE":"U","MEAN_ANOMALY":"276.5930","OBJECT_ID":"2020-057T","GP_ID":"205383159","REF_FRAME":"TEME","TLE_LINE1":"1 46134U 20057T   22155.76278866  .00000260  00000-0  36337-4 0  9991","EPOCH":"2022-06-04T18:18:24.940224","DECAY_DATE":null,"CENTER_NAME":"EARTH","SEMIMAJOR_AXIS":"6925.383","PERIAPSIS":"546.216","BSTAR":"0.00003633700000","LAUNCH_DATE":"2020-08-18","ARG_OF_PERICENTER":"83.5228","INCLINATION":"53.0576","ECCENTRICITY":"0.00014900","MEAN_ELEMENT_THEORY":"SGP4"},{"TLE_LINE1":"1 46135U 20057U   22155.51214041  .00000324  00000-0  40674-4 0  9990","EPOCH":"2022-06-04T12:17:28.931424","DECAY_DATE":null,"CENTER_NAME":"EARTH","SEMIMAJOR_AXIS":"6925.350","PERIAPSIS":"546.163","BSTAR":"0.00004067400000","LAUNCH_DATE":"2020-08-18","INCLINATION":"53.0564","ARG_OF_PERICENTER":"67.6765","ECCENTRICITY":"0.00015190","MEAN_ELEMENT_THEORY":"SGP4","APOAPSIS":"548.267","CLASSIFICATION_TYPE":"U","MEAN_ANOMALY":"292.4385","OBJECT_ID":"2020-057U","GP_ID":"205315337","REF_FRAME":"TEME","NORAD_CAT_ID":"46135","TIME_SYSTEM":"UTC","MEAN_MOTION_DOT":"0.00000324","EPHEMERIS_TYPE":"0","PERIOD":"95.592","MEAN_MOTION":"15.06399545","MEAN_MOTION_DDOT":"0.0000000000000","OBJECT_NAME":"STARLINK-1639","ELEMENT_SET_NO":"999","REV_AT_EPOCH":"10016","RA_OF_ASC_NODE":"325.5406","OBJECT_TYPE":"PAYLOAD","TLE_LINE2":"2 46135  53.0564 325.5406 0001519  67.6765 292.4385 15.06399545100160","COUNTRY_CODE":"US","FILE":"3480310","RCS_SIZE":"LARGE","SITE":"AFETR"}];
